[{"OBJECT_NAME":"YAOGAN-30 05C","OBJECT_ID":"2018-011D","EPOCH":"2026-03-09T22:46:23.359872","MEAN_MOTION":15.02099637,"ECCENTRICITY":0.00031952,"INCLINATION":34.998,"RA_OF_ASC_NODE":35.5831,"ARG_OF_PERICENTER":272.2506,"MEAN_ANOMALY":87.7836,"EPHEMERIS_TYPE":0,"CLASSIFICATION_TYPE":"U","NORAD_CAT_ID":43172,"ELEMENT_SET_NO":999,"REV_AT_EPOCH":44315,"BSTAR":0.00032814398,"MEAN_MOTION_DOT":4.373e-5,"MEAN_MOTION_DDOT":0},{"OBJECT_NAME":"STARLINK-5827","OBJECT_ID":"2023-088U","EPOCH":"2026-03-09T02:16:59.918880","MEAN_MOTION":15.02533243,"ECCENTRICITY":0.00014914,"INCLINATION":43.0033,"RA_OF_ASC_NODE":110.4145,"ARG_OF_PERICENTER":275.9436,"MEAN_ANOMALY":84.1236,"EPHEMERIS_TYPE":0,"CLASSIFICATION_TYPE":"U","NORAD_CAT_ID":57066,"ELEMENT_SET_NO":999,"REV_AT_EPOCH":14930,"BSTAR":-3.0595e-7,"MEAN_MOTION_DOT":-2.08e-6,"MEAN_MOTION_DDOT":0}]
